{
  "type": "FeatureCollection",
  "features": [
    {
      "type": "Feature",
      "properties": {
        "norad_id": 28890,
        "name": "BEIJING 1",
        "group": "dmc",
        "lat": 75.41446796802083,
        "lon": 74.22809843439158,
        "alt_km": 673.630566050836,
        "timestamp": "2025-12-06T16:45:42.393114+00:00",
        "meta_object_name": "BEIJING 1",
        "meta_object_id": "2005-043A",
        "meta_epoch": "2025-12-06T08:12:04.341024",
        "meta_mean_motion": 14.63357063,
        "meta_eccentricity": 0.00150173,
        "meta_inclination": 98.2657,
        "meta_ra_of_asc_node": 107.8338,
        "meta_arg_of_pericenter": 160.7455,
        "meta_mean_anomaly": 199.4317,
        "meta_ephemeris_type": 0,
        "meta_classification_type": "U",
        "meta_norad_cat_id": 28890,
        "meta_element_set_no": 999,
        "meta_rev_at_epoch": 7244,
        "meta_bstar": 0.00017331416,
        "meta_mean_motion_dot": 8.48e-06,
        "meta_mean_motion_ddot": 0,
        "tle_line1": "1 28890U 05043A   25340.34171691  .00000848  00000+0  17331-3 0  9992",
        "tle_line2": "2 28890  98.2657 107.8338 0015017 160.7455 199.4317 14.63357063 72447"
      },
      "geometry": {
        "type": "Point",
        "coordinates": [
          74.22809843439158,
          75.41446796802083
        ]
      }
    },
    {
      "type": "Feature",
      "properties": {
        "norad_id": 33320,
        "name": "HUANJING 1A (HJ-1A)",
        "group": "dmc",
        "lat": 30.58199569664233,
        "lon": -35.308627693226725,
        "alt_km": 603.8427468384043,
        "timestamp": "2025-12-06T16:45:42.393136+00:00",
        "meta_object_name": "HUANJING 1A (HJ-1A)",
        "meta_object_id": "2008-041A",
        "meta_epoch": "2025-12-06T05:17:27.103776",
        "meta_mean_motion": 14.83362358,
        "meta_eccentricity": 0.00205278,
        "meta_inclination": 97.6533,
        "meta_ra_of_asc_node": 328.7913,
        "meta_arg_of_pericenter": 54.8735,
        "meta_mean_anomaly": 305.4399,
        "meta_ephemeris_type": 0,
        "meta_classification_type": "U",
        "meta_norad_cat_id": 33320,
        "meta_element_set_no": 999,
        "meta_rev_at_epoch": 92979,
        "meta_bstar": 0.00035550207,
        "meta_mean_motion_dot": 2.874e-05,
        "meta_mean_motion_ddot": 0,
        "tle_line1": "1 33320U 08041A   25340.22045259  .00002874  00000+0  35550-3 0  9998",
        "tle_line2": "2 33320  97.6533 328.7913 0020527  54.8735 305.4399 14.83362358929799"
      },
      "geometry": {
        "type": "Point",
        "coordinates": [
          -35.308627693226725,
          30.58199569664233
        ]
      }
    },
    {
      "type": "Feature",
      "properties": {
        "norad_id": 33321,
        "name": "HUANJING 1B (HJ-1B)",
        "group": "dmc",
        "lat": -80.6900308498217,
        "lon": 98.00488548988089,
        "alt_km": 654.2181112217395,
        "timestamp": "2025-12-06T16:45:42.393151+00:00",
        "meta_object_name": "HUANJING 1B (HJ-1B)",
        "meta_object_id": "2008-041B",
        "meta_epoch": "2025-12-06T05:51:23.936256",
        "meta_mean_motion": 14.82795731,
        "meta_eccentricity": 0.00382562,
        "meta_inclination": 97.6393,
        "meta_ra_of_asc_node": 332.5278,
        "meta_arg_of_pericenter": 96.3589,
        "meta_mean_anomaly": 264.1984,
        "meta_ephemeris_type": 0,
        "meta_classification_type": "U",
        "meta_norad_cat_id": 33321,
        "meta_element_set_no": 999,
        "meta_rev_at_epoch": 92981,
        "meta_bstar": 0.00030443722,
        "meta_mean_motion_dot": 2.442e-05,
        "meta_mean_motion_ddot": 0,
        "tle_line1": "1 33321U 08041B   25340.24402704  .00002442  00000+0  30444-3 0  9991",
        "tle_line2": "2 33321  97.6393 332.5278 0038256  96.3589 264.1984 14.82795731929815"
      },
      "geometry": {
        "type": "Point",
        "coordinates": [
          98.00488548988089,
          -80.6900308498217
        ]
      }
    },
    {
      "type": "Feature",
      "properties": {
        "norad_id": 33446,
        "name": "YAOGAN-4",
        "group": "dmc",
        "lat": 0.7822572372737873,
        "lon": 90.9659359232787,
        "alt_km": 633.4411189979628,
        "timestamp": "2025-12-06T16:45:42.393163+00:00",
        "meta_object_name": "YAOGAN-4",
        "meta_object_id": "2008-061A",
        "meta_epoch": "2025-12-06T06:14:16.558368",
        "meta_mean_motion": 14.82651246,
        "meta_eccentricity": 0.00141606,
        "meta_inclination": 97.9175,
        "meta_ra_of_asc_node": 270.423,
        "meta_arg_of_pericenter": 345.1979,
        "meta_mean_anomaly": 14.8818,
        "meta_ephemeris_type": 0,
        "meta_classification_type": "U",
        "meta_norad_cat_id": 33446,
        "meta_element_set_no": 999,
        "meta_rev_at_epoch": 91707,
        "meta_bstar": 0.00037016546,
        "meta_mean_motion_dot": 2.935e-05,
        "meta_mean_motion_ddot": 0,
        "tle_line1": "1 33446U 08061A   25340.25991387  .00002935  00000+0  37017-3 0  9992",
        "tle_line2": "2 33446  97.9175 270.4230 0014160 345.1979  14.8818 14.82651246917071"
      },
      "geometry": {
        "type": "Point",
        "coordinates": [
          90.9659359232787,
          0.7822572372737873
        ]
      }
    },
    {
      "type": "Feature",
      "properties": {
        "norad_id": 35681,
        "name": "DEIMOS-1",
        "group": "dmc",
        "lat": 62.16109991705094,
        "lon": -23.54210014050922,
        "alt_km": 637.6083071050598,
        "timestamp": "2025-12-06T16:45:42.393174+00:00",
        "meta_object_name": "DEIMOS-1",
        "meta_object_id": "2009-041A",
        "meta_epoch": "2025-12-06T04:50:13.582176",
        "meta_mean_motion": 14.74936951,
        "meta_eccentricity": 0.00026894,
        "meta_inclination": 97.7153,
        "meta_ra_of_asc_node": 141.1097,
        "meta_arg_of_pericenter": 92.2308,
        "meta_mean_anomaly": 267.921,
        "meta_ephemeris_type": 0,
        "meta_classification_type": "U",
        "meta_norad_cat_id": 35681,
        "meta_element_set_no": 999,
        "meta_rev_at_epoch": 87843,
        "meta_bstar": 0.00019979231,
        "meta_mean_motion_dot": 1.295e-05,
        "meta_mean_motion_ddot": 0,
        "tle_line1": "1 35681U 09041A   25340.20154609  .00001295  00000+0  19979-3 0  9992",
        "tle_line2": "2 35681  97.7153 141.1097 0002689  92.2308 267.9210 14.74936951878435"
      },
      "geometry": {
        "type": "Point",
        "coordinates": [
          -23.54210014050922,
          62.16109991705094
        ]
      }
    },
    {
      "type": "Feature",
      "properties": {
        "norad_id": 35683,
        "name": "UK-DMC 2",
        "group": "dmc",
        "lat": 61.62752142694579,
        "lon": -49.41517196603036,
        "alt_km": 636.335415042271,
        "timestamp": "2025-12-06T16:45:42.393185+00:00",
        "meta_object_name": "UK-DMC 2",
        "meta_object_id": "2009-041C",
        "meta_epoch": "2025-12-06T06:28:02.921664",
        "meta_mean_motion": 14.75600258,
        "meta_eccentricity": 0.00013557,
        "meta_inclination": 97.8563,
        "meta_ra_of_asc_node": 115.3554,
        "meta_arg_of_pericenter": 102.6992,
        "meta_mean_anomaly": 257.437,
        "meta_ephemeris_type": 0,
        "meta_classification_type": "U",
        "meta_norad_cat_id": 35683,
        "meta_element_set_no": 999,
        "meta_rev_at_epoch": 87811,
        "meta_bstar": 0.00032935109,
        "meta_mean_motion_dot": 2.198e-05,
        "meta_mean_motion_ddot": 0,
        "tle_line1": "1 35683U 09041C   25340.26947826  .00002198  00000+0  32935-3 0  9991",
        "tle_line2": "2 35683  97.8563 115.3554 0001355 102.6992 257.4370 14.75600258878113"
      },
      "geometry": {
        "type": "Point",
        "coordinates": [
          -49.41517196603036,
          61.62752142694579
        ]
      }
    },
    {
      "type": "Feature",
      "properties": {
        "norad_id": 40715,
        "name": "DMC3-FM1",
        "group": "dmc",
        "lat": -46.48946605226061,
        "lon": -143.72758305357294,
        "alt_km": 615.9816944618051,
        "timestamp": "2025-12-06T16:45:42.393196+00:00",
        "meta_object_name": "DMC3-FM1",
        "meta_object_id": "2015-032A",
        "meta_epoch": "2025-12-06T05:39:21.933792",
        "meta_mean_motion": 14.8542356,
        "meta_eccentricity": 0.00050933,
        "meta_inclination": 97.6704,
        "meta_ra_of_asc_node": 207.665,
        "meta_arg_of_pericenter": 344.7347,
        "meta_mean_anomaly": 15.3714,
        "meta_ephemeris_type": 0,
        "meta_classification_type": "U",
        "meta_norad_cat_id": 40715,
        "meta_element_set_no": 999,
        "meta_rev_at_epoch": 56126,
        "meta_bstar": 0.00019178148,
        "meta_mean_motion_dot": 1.601e-05,
        "meta_mean_motion_ddot": 0,
        "tle_line1": "1 40715U 15032A   25340.23567053  .00001601  00000+0  19178-3 0  9999",
        "tle_line2": "2 40715  97.6704 207.6650 0005093 344.7347  15.3714 14.85423560561266"
      },
      "geometry": {
        "type": "Point",
        "coordinates": [
          -143.72758305357294,
          -46.48946605226061
        ]
      }
    },
    {
      "type": "Feature",
      "properties": {
        "norad_id": 40716,
        "name": "DMC3-FM2",
        "group": "dmc",
        "lat": -12.797824222337658,
        "lon": 27.794692870345596,
        "alt_km": 620.4143369766198,
        "timestamp": "2025-12-06T16:45:42.393206+00:00",
        "meta_object_name": "DMC3-FM2",
        "meta_object_id": "2015-032B",
        "meta_epoch": "2025-12-06T06:11:46.227552",
        "meta_mean_motion": 14.85424829,
        "meta_eccentricity": 0.00057305,
        "meta_inclination": 97.6761,
        "meta_ra_of_asc_node": 209.1259,
        "meta_arg_of_pericenter": 349.1381,
        "meta_mean_anomaly": 10.971,
        "meta_ephemeris_type": 0,
        "meta_classification_type": "U",
        "meta_norad_cat_id": 40716,
        "meta_element_set_no": 999,
        "meta_rev_at_epoch": 56126,
        "meta_bstar": 0.00018976769,
        "meta_mean_motion_dot": 1.584e-05,
        "meta_mean_motion_ddot": 0,
        "tle_line1": "1 40716U 15032B   25340.25817393  .00001584  00000+0  18977-3 0  9993",
        "tle_line2": "2 40716  97.6761 209.1259 0005730 349.1381  10.9710 14.85424829561263"
      },
      "geometry": {
        "type": "Point",
        "coordinates": [
          27.794692870345596,
          -12.797824222337658
        ]
      }
    },
    {
      "type": "Feature",
      "properties": {
        "norad_id": 40717,
        "name": "DMC3-FM3",
        "group": "dmc",
        "lat": 75.36656713735866,
        "lon": -179.9464376648144,
        "alt_km": 604.9834601326329,
        "timestamp": "2025-12-06T16:45:42.393217+00:00",
        "meta_object_name": "DMC3-FM3",
        "meta_object_id": "2015-032C",
        "meta_epoch": "2025-12-06T06:42:50.881248",
        "meta_mean_motion": 14.85416488,
        "meta_eccentricity": 0.00050898,
        "meta_inclination": 97.6816,
        "meta_ra_of_asc_node": 210.7755,
        "meta_arg_of_pericenter": 351.1991,
        "meta_mean_anomaly": 8.9134,
        "meta_ephemeris_type": 0,
        "meta_classification_type": "U",
        "meta_norad_cat_id": 40717,
        "meta_element_set_no": 999,
        "meta_rev_at_epoch": 56127,
        "meta_bstar": 0.00015728354,
        "meta_mean_motion_dot": 1.303e-05,
        "meta_mean_motion_ddot": 0,
        "tle_line1": "1 40717U 15032C   25340.27975557  .00001303  00000+0  15728-3 0  9993",
        "tle_line2": "2 40717  97.6816 210.7755 0005089 351.1991   8.9134 14.85416488561271"
      },
      "geometry": {
        "type": "Point",
        "coordinates": [
          -179.9464376648144,
          75.36656713735866
        ]
      }
    }
  ]
}